{
  "type": "FeatureCollection",
  "features": [
    {
      "type": "Feature",
      "properties": {
        "norad_id": 44624,
        "name": "EUTELSAT 5 WEST B (EGNOS/PRN 121)",
        "group": "gnss",
        "lat": -0.08754198798733916,
        "lon": -143.70050028359515,
        "alt_km": 35776.81960700234,
        "timestamp": "2025-12-17T09:00:17.393151+00:00",
        "meta_object_name": "EUTELSAT 5 WEST B (EGNOS/PRN 121)",
        "meta_object_id": "2019-067A",
        "meta_epoch": "2025-12-16T16:45:26.529408",
        "meta_mean_motion": 1.00273404,
        "meta_eccentricity": 0.00032128,
        "meta_inclination": 0.0718,
        "meta_ra_of_asc_node": 328.0837,
        "meta_arg_of_pericenter": 297.9628,
        "meta_mean_anomaly": 65.9102,
        "meta_ephemeris_type": 0,
        "meta_classification_type": "U",
        "meta_norad_cat_id": 44624,
        "meta_element_set_no": 999,
        "meta_rev_at_epoch": 2260,
        "meta_bstar": 0,
        "meta_mean_motion_dot": -1.8e-07,
        "meta_mean_motion_ddot": 0,
        "tle_line1": "1 44624U 19067A   25350.69822372 -.00000018  00000+0  00000+0 0  9995",
        "tle_line2": "2 44624   0.0718 328.0837 0003212 297.9628  65.9102  1.00273404 22604"
      },
      "geometry": {
        "type": "Point",
        "coordinates": [
          -143.70050028359515,
          -0.08754198798733916
        ]
      }
    },
    {
      "type": "Feature",
      "properties": {
        "norad_id": 44709,
        "name": "BEIDOU-3 IGSO-3 (C40)",
        "group": "gnss",
        "lat": 39.54722928081962,
        "lon": -42.08421016153376,
        "alt_km": 35935.84646311722,
        "timestamp": "2025-12-17T09:00:17.393172+00:00",
        "meta_object_name": "BEIDOU-3 IGSO-3 (C40)",
        "meta_object_id": "2019-073A",
        "meta_epoch": "2025-11-20T07:11:22.740000",
        "meta_mean_motion": 1.00250097,
        "meta_eccentricity": 0.0044538,
        "meta_inclination": 55.163,
        "meta_ra_of_asc_node": 283.159,
        "meta_arg_of_pericenter": 191.5856,
        "meta_mean_anomaly": 168.2409,
        "meta_ephemeris_type": 0,
        "meta_classification_type": "U",
        "meta_norad_cat_id": 44709,
        "meta_element_set_no": 999,
        "meta_rev_at_epoch": 2236,
        "meta_bstar": 0,
        "meta_mean_motion_dot": -2.06e-06,
        "meta_mean_motion_ddot": 0,
        "tle_line1": "1 44709U 19073A   25324.29956875 -.00000206  00000+0  00000+0 0  9998",
        "tle_line2": "2 44709  55.1630 283.1590 0044538 191.5856 168.2409  1.00250097 22360"
      },
      "geometry": {
        "type": "Point",
        "coordinates": [
          -42.08421016153376,
          39.54722928081962
        ]
      }
    },
    {
      "type": "Feature",
      "properties": {
        "norad_id": 44793,
        "name": "BEIDOU-3 M22 (C44)",
        "group": "gnss",
        "lat": -27.645726498703283,
        "lon": 148.47443738436763,
        "alt_km": 21547.372569157636,
        "timestamp": "2025-12-17T09:00:17.393195+00:00",
        "meta_object_name": "BEIDOU-3 M22 (C44)",
        "meta_object_id": "2019-078A",
        "meta_epoch": "2025-12-15T23:32:20.992992",
        "meta_mean_motion": 1.86231869,
        "meta_eccentricity": 0.00058075,
        "meta_inclination": 54.1051,
        "meta_ra_of_asc_node": 306.2718,
        "meta_arg_of_pericenter": 23.5551,
        "meta_mean_anomaly": 336.4582,
        "meta_ephemeris_type": 0,
        "meta_classification_type": "U",
        "meta_norad_cat_id": 44793,
        "meta_element_set_no": 999,
        "meta_rev_at_epoch": 4123,
        "meta_bstar": 0,
        "meta_mean_motion_dot": -9.7e-07,
        "meta_mean_motion_ddot": 0,
        "tle_line1": "1 44793U 19078A   25349.98079853 -.00000097  00000+0  00000+0 0  9999",
        "tle_line2": "2 44793  54.1051 306.2718 0005807  23.5551 336.4582  1.86231869 41238"
      },
      "geometry": {
        "type": "Point",
        "coordinates": [
          148.47443738436763,
          -27.645726498703283
        ]
      }
    },
    {
      "type": "Feature",
      "properties": {
        "norad_id": 44794,
        "name": "BEIDOU-3 M21 (C43)",
        "group": "gnss",
        "lat": 43.02138750375654,
        "lon": 83.63353819691218,
        "alt_km": 21527.263056922846,
        "timestamp": "2025-12-17T09:00:17.393213+00:00",
        "meta_object_name": "BEIDOU-3 M21 (C43)",
        "meta_object_id": "2019-078B",
        "meta_epoch": "2025-12-15T13:57:29.064096",
        "meta_mean_motion": 1.86227547,
        "meta_eccentricity": 0.00039999,
        "meta_inclination": 54.0788,
        "meta_ra_of_asc_node": 306.2509,
        "meta_arg_of_pericenter": 11.1298,
        "meta_mean_anomaly": 348.8661,
        "meta_ephemeris_type": 0,
        "meta_classification_type": "U",
        "meta_norad_cat_id": 44794,
        "meta_element_set_no": 999,
        "meta_rev_at_epoch": 4123,
        "meta_bstar": 0,
        "meta_mean_motion_dot": -9.9e-07,
        "meta_mean_motion_ddot": 0,
        "tle_line1": "1 44794U 19078B   25349.58158639 -.00000099  00000+0  00000+0 0  9998",
        "tle_line2": "2 44794  54.0788 306.2509 0003999  11.1298 348.8661  1.86227547 41237"
      },
      "geometry": {
        "type": "Point",
        "coordinates": [
          83.63353819691218,
          43.02138750375654
        ]
      }
    },
    {
      "type": "Feature",
      "properties": {
        "norad_id": 44850,
        "name": "COSMOS 2544 (759)",
        "group": "gnss",
        "lat": -34.32598839648745,
        "lon": 61.66856254191632,
        "alt_km": 19123.516801104888,
        "timestamp": "2025-12-17T09:00:17.393232+00:00",
        "meta_object_name": "COSMOS 2544 (759)",
        "meta_object_id": "2019-088A",
        "meta_epoch": "2025-12-16T00:24:58.723776",
        "meta_mean_motion": 2.13101973,
        "meta_eccentricity": 0.00138315,
        "meta_inclination": 65.4622,
        "meta_ra_of_asc_node": 79.8485,
        "meta_arg_of_pericenter": 249.722,
        "meta_mean_anomaly": 110.1429,
        "meta_ephemeris_type": 0,
        "meta_classification_type": "U",
        "meta_norad_cat_id": 44850,
        "meta_element_set_no": 999,
        "meta_rev_at_epoch": 4681,
        "meta_bstar": 0,
        "meta_mean_motion_dot": -5.5e-07,
        "meta_mean_motion_ddot": 0,
        "tle_line1": "1 44850U 19088A   25350.01734634 -.00000055  00000+0  00000+0 0  9999",
        "tle_line2": "2 44850  65.4622  79.8485 0013831 249.7220 110.1429  2.13101973 46815"
      },
      "geometry": {
        "type": "Point",
        "coordinates": [
          61.66856254191632,
          -34.32598839648745
        ]
      }
    },
    {
      "type": "Feature",
      "properties": {
        "norad_id": 44864,
        "name": "BEIDOU-3 M19 (C41)",
        "group": "gnss",
        "lat": -33.57861183452718,
        "lon": 42.66922908760048,
        "alt_km": 21490.339186969453,
        "timestamp": "2025-12-17T09:00:17.393249+00:00",
        "meta_object_name": "BEIDOU-3 M19 (C41)",
        "meta_object_id": "2019-090A",
        "meta_epoch": "2025-12-14T04:04:53.318784",
        "meta_mean_motion": 1.86231555,
        "meta_eccentricity": 0.00179181,
        "meta_inclination": 56.3949,
        "meta_ra_of_asc_node": 68.9134,
        "meta_arg_of_pericenter": 285.3736,
        "meta_mean_anomaly": 44.0547,
        "meta_ephemeris_type": 0,
        "meta_classification_type": "U",
        "meta_norad_cat_id": 44864,
        "meta_element_set_no": 999,
        "meta_rev_at_epoch": 4078,
        "meta_bstar": 0,
        "meta_mean_motion_dot": -8.2e-07,
        "meta_mean_motion_ddot": 0,
        "tle_line1": "1 44864U 19090A   25348.17006156 -.00000082  00000+0  00000+0 0  9992",
        "tle_line2": "2 44864  56.3949  68.9134 0017918 285.3736  44.0547  1.86231555 40784"
      },
      "geometry": {
        "type": "Point",
        "coordinates": [
          42.66922908760048,
          -33.57861183452718
        ]
      }
    },
    {
      "type": "Feature",
      "properties": {
        "norad_id": 44865,
        "name": "BEIDOU-3 M20 (C42)",
        "group": "gnss",
        "lat": 38.304885303374064,
        "lon": 100.47737323064877,
        "alt_km": 21537.96594059405,
        "timestamp": "2025-12-17T09:00:17.393269+00:00",
        "meta_object_name": "BEIDOU-3 M20 (C42)",
        "meta_object_id": "2019-090B",
        "meta_epoch": "2025-12-14T14:16:43.218624",
        "meta_mean_motion": 1.86231589,
        "meta_eccentricity": 0.00151163,
        "meta_inclination": 56.3967,
        "meta_ra_of_asc_node": 68.9336,
        "meta_arg_of_pericenter": 297.6834,
        "meta_mean_anomaly": 46.2212,
        "meta_ephemeris_type": 0,
        "meta_classification_type": "U",
        "meta_norad_cat_id": 44865,
        "meta_element_set_no": 999,
        "meta_rev_at_epoch": 4077,
        "meta_bstar": 0,
        "meta_mean_motion_dot": -8.3e-07,
        "meta_mean_motion_ddot": 0,
        "tle_line1": "1 44865U 19090B   25348.59494466 -.00000083  00000+0  00000+0 0  9995",
        "tle_line2": "2 44865  56.3967  68.9336 0015116 297.6834  46.2212  1.86231589 40771"
      },
      "geometry": {
        "type": "Point",
        "coordinates": [
          100.47737323064877,
          38.304885303374064
        ]
      }
    }
  ]
}